0 COSMOS 2251 DEB
1 34340U 93036PN  13282.98944161  .00001305  00000-0  10637-2 0  3221
2 34340 074.0780 104.1481 0313719 157.2047 006.6573 13.70184273232179
0 COSMOS 2251 DEB
1 34340U 93036PN  13285.81681720  .00001467  00000-0  11936-2 0  3249
2 34340 074.0783 099.4984 0313620 151.9069 273.1946 13.70193389232568
0 COSMOS 2251 DEB
1 34340U 93036PN  13286.83984062  .00001640  00000-0  13318-2 0  3257
2 34340 074.0785 097.8160 0313590 149.9832 279.4692 13.70195968232707
0 COSMOS 2251 DEB
1 34340U 93036PN  13288.16489703  .00002108  00000-0  17076-2 0  3263
2 34340 074.0789 095.6373 0313539 147.5214 335.5650 13.70202602232885
0 COSMOS 2251 DEB
1 34340U 93036PN  13289.18550009  .00001682  00000-0  13653-2 0  3278
2 34340 074.0792 093.9587 0313447 145.6077 329.9219 13.70206557233029
0 COSMOS 2251 DEB
1 34340U 93036PN  13290.78150699  .00001668  00000-0  13542-2 0  3289
2 34340 074.0796 091.3343 0313337 142.6166 282.6193 13.70211838233247
0 COSMOS 2251 DEB
1 34340U 93036PN  13291.81400490  .00001675  00000-0  13601-2 0  3296
2 34340 074.0798 089.6366 0313260 140.6829 335.6887 13.70214729233389
0 COSMOS 2251 DEB
1 34340U 93036PN  13292.83613944  .00001828  00000-0  14829-2 0  3304
2 34340 074.0799 087.9559 0313216 138.7610 337.6600 13.70218339233524
0 COSMOS 2251 DEB
1 34340U 93036PN  13293.86573259  .00002213  00000-0  17918-2 0  3314
2 34340 074.0804 086.2642 0313222 136.8315 016.4343 13.70221760233667
0 COSMOS 2251 DEB
1 34340U 93036PN  13294.88773096  .00002451  00000-0  19827-2 0  3324
2 34340 074.0804 084.5837 0313149 134.9218 017.7538 13.70225284233804
0 COSMOS 2251 DEB
1 34340U 93036PN  13296.12181894  .00002473  00000-0  20011-2 0  3334
2 34340 074.0804 082.5543 0313024 132.6177 345.2826 13.70230472233979
